FID,OBJECTID,NAME,ADMIN_ORG,REGION,STATE,COMMENTS,NO_MAP,LABELS,URL,LATITUDE,LONGITUDE,x,y
1,35,Gidarjil Land and Sea Rangers (2 groups),Gidarjil Development Corporation,Qld - Mainland southern region,QLD,Note: Two groups,2,2 Gidarjil Land and Sea Rangers (2 groups),https://www.niaa.gov.au/indigenous-affairs/environment/indigenous-rangers-working-country/gidarjil-bundaberg-land-and-sea-rangers,-24.76514356,152.38913268,16963880.6520691,-2846925.25538863
2,36,Queensland Murray Darling Rangers,Queensland Murray Darling Catchments Limited,Qld - Mainland southern region,QLD, ,3,3 Queensland Murray Darling Rangers,https://www.niaa.gov.au/indigenous-affairs/environment/queensland-murray-darling-rangers,-28.141971,149.57673,16650805.4181663,-3266884.90449503
3,37,Balanggarra Rangers,Kimberley Land Council,WA - Kimberley region,WA, ,2,2 Balanggarra Rangers,https://www.niaa.gov.au/indigenous-affairs/environment/balanggarra-ipa-and-rangers,-15.4869,128.12428,14262729.6079018,-1745378.28076082
4,38,Bardi Jawi Rangers,Kimberley Land Council,WA - Kimberley region,WA, ,3,3 Bardi Jawi Rangers,https://www.niaa.gov.au/indigenous-affairs/environment/bardi-jawi-ipa-and-rangers,-16.44832,123.0602,13698998.8008884,-1856699.59676079
5,39,Gooniyandi Rangers,Kimberley Land Council,WA - Kimberley region,WA, ,4,4 Gooniyandi Rangers,https://www.niaa.gov.au/gooniyandi-rangers,-18.17806,125.5914,13980770.6960155,-2058400.71752999
6,40,Karajarri Rangers,Karajarri Traditional Lands Association,WA - Kimberley region,WA, ,5,5 Karajarri Rangers,https://www.niaa.gov.au/indigenous-affairs/environment/karajarri-ipa-and-rangers,-18.685,121.7808,13556576.6443886,-2117884.64161717
7,41,Yanunijarra Ngurrara Rangers,Yanunijarra Aboriginal Corporation RNTBC,WA - Kimberley region,WA, ,6,6 Yanunijarra Ngurrara Rangers,https://www.niaa.gov.au/indigenous-affairs/environment/warlu-jilajaa-jumu-ipa-and-yanunijarra-ngurrara-rangers,-18.98609,125.5102,13971731.5533875,-2153298.30645982
8,42,Anangu Luritjiku Rangers,Central Land Council,NT - Central Australian region,NT, ,1,1 Anangu Luritjiku Rangers,https://www.niaa.gov.au/indigenous-affairs/environment/anangu-luritjiku-rangers,-23.20246371,131.9070736,14683828.2651347,-2656521.63068719
9,43,APY Land Management Rangers,Anangu Pitjantjatjara Yankunytjatjara (APY) Land Management,SA,SA,Previously Anangu Land Management Rangers (and prior  to that APY Sandy Bore),1,1 APY Land Management Rangers,https://www.niaa.gov.au/indigenous-affairs/environment/warru-kaninytjaku-apy-rangers,-27.012908,132.713772,14773629.5203366,-3125084.52568482
10,44,Gangalidda Garawa (Burketown) Rangers,Carpentaria Land Council Aboriginal Corporation,Qld - Mainland northern region,QLD,Previously Gangalidda Garawa Rangers,4,4 Gangalidda Garawa (Burketown) Rangers,https://www.niaa.gov.au/indigenous-affairs/environment/nijinda-durlga-ipa-and-gangalidda-garawa-rangers,-16.921613,138.924031,15464952.389839,-1911702.23803644
11,45,Nyikina Mangala Rangers,Walalakoo Aboriginal Corporation RNTBC,WA - Kimberley region,WA, ,7,7 Nyikina Mangala Rangers,https://www.niaa.gov.au/indigenous-affairs/environment/indigenous-rangers-working-country/nyikina-mangala-rangers,-18.01304,124.011,13804841.3727257,-2039074.91019529
12,46,Nyul Nyul Rangers,Kimberley Land Council,WA - Kimberley region,WA, ,8,8 Nyul Nyul Rangers,https://www.niaa.gov.au/indigenous-affairs/environment/nyul-nyul-rangers,-16.97944,122.6658,13655094.393724,-1918431.86681592
13,47,Paruku Rangers,Kimberley Land Council,WA - Kimberley region,WA, ,9,9 Paruku Rangers,https://www.niaa.gov.au/indigenous-affairs/environment/paruku-ipa-and-rangers,-20.10136,127.5952,14203832.6917082,-2285042.2840889
14,48,Uunguu Rangers,Wunambal Gaambera Aboriginal Corporation,WA - Kimberley region,WA, ,10,10 Uunguu Rangers,https://www.niaa.gov.au/indigenous-affairs/environment/uunguu-ipa-and-rangers,-14.29469,126.6421,14097734.084948,-1608047.40676778
15,15,Wunggurr Rangers,Wilinggin Aboriginal Corporation,WA - Kimberley region,WA,Changed lat/long 2016,11,11 Wunggurr Rangers,https://www.niaa.gov.au/indigenous-affairs/environment/wilinggin-ipa-and-wunggurr-rangers,-16.45602,126.315,14061321.4795134,-1857593.35022465
16,16,Tasmania PWS Trainees,"Department of Primary Industries, Parks, Water and the Environment",TAS,TAS, ,2,2 Tasmania PWS Trainees,https://www.niaa.gov.au/tasmanian-aboriginal-trainee-rangers,-42.2,146.7,16330569.2993844,-5190985.71474012
17,113,"Kurtijar, Gkuthaarn, and Kukatj (Normanton) Rangers",Carpentaria Land Council Aboriginal Corporation,Qld - Mainland northern region,QLD,Added 2016,5,"5 Kurtijar, Gkuthaarn, and Kukatj (Normanton) Rangers",https://www.niaa.gov.au/indigenous-affairs/environment/normanton-rangers,-17.6667,141.067,15703506.6077737,-1998572.96945452
18,17,Anmatyerr Rangers,Central Land Council,NT - Central Australian region,NT, ,2,2 Anmatyerr Rangers,https://www.niaa.gov.au/indigenous-affairs/environment/anmatyerr-rangers,-22.1263,133.2634,14834813.8293926,-2526695.82657619
19,18,Tjuwanpa Rangers,Central Land Council,NT - Central Australian region,NT, ,4,4 Tjuwanpa Rangers,https://www.niaa.gov.au/indigenous-affairs/environment/tjuwanpa-rangers,-23.9427,132.7787,14780857.2721711,-2746427.40780788
20,19,Kalan Rangers,Kalan Enterprises Aboriginal Corporation,Qld - Mainland northern region,QLD,Previously Normanton Rangers,6,6 Kalan Rangers,https://www.niaa.gov.au/indigenous-affairs/environment/kalan-rangers,-13.94348,143.19861,15940796.3474658,-1567732.9525911
21,20,Kowanyama Indigenous Rangers,Kowanyama Aboriginal Shire Council,Qld - Mainland northern region,QLD, ,7,7 Kowanyama Indigenous Rangers,https://www.niaa.gov.au/indigenous-affairs/environment/kowanyama-rangers,-15.4796,141.74198,15778645.0376167,-1744535.04633386
22,21,Lama Lama Rangers,Yintjingga Aboriginal Corporation,Qld - Mainland northern region,QLD, ,8,8 Lama Lama Rangers,https://www.niaa.gov.au/indigenous-affairs/environment/indigenous-rangers-working-country/lama-lama-rangers,-14.06681,143.68611,15995064.5992192,-1581882.60084554
23,22,Mapoon Land and Sea Rangers,Mapoon Aboriginal Shire Council,Qld - Mainland northern region,QLD, ,9,9 Mapoon Land and Sea Rangers,https://www.niaa.gov.au/indigenous-affairs/environment/mapoon-land-and-sea-rangers,-12.01905,141.9025,15796514.0422897,-1347876.49764404
24,23,Tjuwanpa Women Rangers,Tjuwanpa Outstations Resource Centre Aboriginal Corporation,NT - Central Australian region,NT, ,5,5 Tjuwanpa Women Rangers,https://www.niaa.gov.au/indigenous-affairs/environment/tjuwanpa-women-rangers,-23.9427,132.7787,14780857.2721711,-2746427.40780788
25,24,Kaltukatjara Rangers,Central Land Council,NT - Central Australian region,NT, ,6,6 Kaltukatjara Rangers,https://www.niaa.gov.au/indigenous-affairs/environment/katiti-petermann-ipa-kaltukatjara-rangers-and-mutijulu-tjakura-rangers,-24.87611,129.07916,14369026.3631828,-2860535.18391743
26,25,Mid North Coast Indigenous Rangers,Taree Indigenous Development and Employment,NSW,NSW,Previously TIDE Rangers,5,5 Mid North Coast Indigenous Rangers,https://www.niaa.gov.au/indigenous-affairs/environment/mid-north-coast-aboriginal-rangers,-31.9152,152.4512,16970789.9548102,-3752184.44951596
27,26,Warlpiri Rangers,Central Land Council,NT - Central Australian region,NT, ,7,7 Warlpiri Rangers,https://www.niaa.gov.au/indigenous-affairs/environment/southern-tanami-ipa-and-warlpiri-rangers,-22.25389,131.79529,14671384.5717222,-2542035.17981412
28,27,Bulgul Land and Sea Rangers,Northern Land Council,NT - Top End region,NT, ,9,9 Bulgul Land and Sea Rangers,https://www.niaa.gov.au/indigenous-affairs/environment/indigenous-rangers-working-country/bulgul-land-and-sea-rangers,-13.08751389,130.1208472,14484986.4518531,-1469732.29534123
29,28,Malak Malak Land and Water Management Rangers,Northern Land Council,NT - Top End region,NT, ,10,10 Malak Malak Land and Water Management Rangers,https://www.niaa.gov.au/indigenous-affairs/environment/malak-malak-land-management-rangers,-13.75054167,130.6889306,14548225.2066947,-1545612.27885151
30,114,Jigalong Rangers,Desert Support Services,WA - Central and Southern region,WA, ,12,12 Jigalong Rangers,https://www.niaa.gov.au/indigenous-affairs/environment/western-desert-martu-ranger-programme,-23.277347,120.842381,13452112.3191538,-2665593.70229031
31,115,Punmu Rangers,Desert Support Services,WA - Central and Southern region,WA, ,13,13 Punmu Rangers,https://www.niaa.gov.au/indigenous-affairs/environment/western-desert-martu-ranger-programme,-22.079119,123.148892,13708871.9491587,-2521027.06922436
32,116,Parnngurr Rangers,Desert Support Services,WA - Central and Southern region,WA,Changed lat/long 2016,14,14 Parnngurr Rangers,https://www.niaa.gov.au/indigenous-affairs/environment/western-desert-martu-ranger-programme,-22.818,122.599345,13647696.6569969,-2610023.6044452
33,29,Thamarrurr Rangers,Thamarrurr Development Corporation,NT - Top End region,NT, ,12,12 Thamarrurr Rangers,https://www.niaa.gov.au/indigenous-affairs/environment/marri-jabin-ipa-and-thamarrurr-rangers,-14.2404,129.5205,14418156.1072429,-1601811.52875411
34,49,Waanyi Garawa Rangers,Northern Land Council,NT - Arnhem Land region,NT, ,13,13 Waanyi Garawa Rangers,https://www.niaa.gov.au/indigenous-affairs/environment/ganalanga-mindibirrina-ipa-and-waanyi-garawa-and-garawa-rangers,-18.25,137.5,15306429.9840306,-2066831.46012063
35,124,Garawa Rangers,Northern Land Council,NT - Arnhem Land region,NT, ,14,14 Garawa Rangers,https://www.niaa.gov.au/indigenous-affairs/environment/ganalanga-mindibirrina-ipa-and-waanyi-garawa-and-garawa-rangers,-16.75973611,136.9805694,15248607.2341315,-1892874.74338356
36,50,Tiwi Rangers,Tiwi Resources,NT - Top End region,NT, ,16,16 Tiwi Rangers,https://www.niaa.gov.au/indigenous-affairs/environment/tiwi-islands-land-and-marine-rangers,-11.421667,130.67418,14546583.177396,-1279959.78270185
37,51,Nanum Wungthim Rangers,Napranum Aboriginal Shire Council,Qld - Mainland northern region,QLD,Previously Napranum,25,25 Nanum Wungthim Rangers,https://www.niaa.gov.au/indigenous-affairs/environment/nanum-wungthim-land-and-sea-rangers,-12.68238,141.88889,15794998.984031,-1423467.94838809
38,52,Walaaybaa Rangers,Tamworth Local Aboriginal Land Council,NSW,NSW,"Previously Wattleridge & Tarriwa Kurrukun Rangers. Previous location -30.2152,151.6679",4,4 Walaaybaa Rangers,https://www.niaa.gov.au/indigenous-affairs/environment/tarriwa-kurrukun-ipa-and-rangers,-31.08596842,150.92840093,16801272.7344624,-3643918.81660948
39,125,Kunawarritji Rangers,Desert Support Services,WA - Central and Southern region,WA,Changed lat/long 2022,15,15 Kunawarritji Rangers,https://www.niaa.gov.au/indigenous-affairs/environment/western-desert-martu-ranger-programme,-22.32880484,124.72564554,13884395.3503317,-2551048.23557911
40,53,Blackstone Rangers,Ngaanyajtarra Council Aboriginal Corporation,WA - Central and Southern region,WA, ,18,18 Blackstone Rangers,https://www.niaa.gov.au/indigenous-affairs/environment/ngaanyatjarra-ipa-and-rangers,-25.987606,128.285675,14280696.017116,-2997545.9744183
41,126,Warakurna Rangers,Desert Support Services,WA - Central and Southern region,WA, ,19,19 Warakurna Rangers,https://www.niaa.gov.au/indigenous-affairs/environment/western-desert-martu-ranger-programme,-24.980225,128.299056,14282185.583137,-2873315.9065921
42,54,Eastern Kuku Yalanji Indigenous Rangers,Jabalbina Yalanji Aboriginal Corporation RNTBC,Qld - Mainland northern region,QLD,Previously Nyungkal,27,27 Eastern Kuku Yalanji Indigenous Rangers,https://www.niaa.gov.au/indigenous-affairs/environment/eastern-kuku-yalanji-ipa-and-eastern-yalanji-rangers,-16.46041,145.3736,16182915.1268117,-1858102.92167083
43,55,Yuku-Baja-Muliku Indigenous Rangers,Yuku-Baja-Muliku Land Owner and Reserves Limited,Qld - Mainland northern region,QLD, ,28,28 Yuku-Baja-Muliku Indigenous Rangers,https://www.niaa.gov.au/indigenous-affairs/environment/yuku-baja-muliku-rangers,-15.6,145.33333,16178432.2909219,-1758446.45309063
44,56,Girringun Rangers,Girringun Aboriginal Corporation,Qld - Mainland northern region,QLD, ,30,30 Girringun Rangers,https://www.niaa.gov.au/indigenous-affairs/environment/girringun-ipa-and-girringun-land-and-sea-rangers,-18.2704,146.01777,16254623.8031566,-2069222.79746649
45,57,Kija Rangers,Kimberley Land Council,WA - Kimberley region,WA,Added 2016,20,20 Kija Rangers,https://www.niaa.gov.au/indigenous-affairs/environment/kija-rangers,-17.0333,128.217,14273051.1510356,-1924701.70058995
46,58,Gawler Ranges Rangers,Gawler Ranges Aboriginal Corporation,SA,SA, ,2,2 Gawler Ranges Rangers,https://www.niaa.gov.au/indigenous-affairs/environment/gawler-ranges-rangers,-33.04722,135.46193,15079553.0694596,-3901573.30716127
47,59,Nantawarrina Rangers,Nipapanha Community Aboriginal Corporation,SA,SA, ,3,3 Nantawarrina Rangers,https://www.niaa.gov.au/indigenous-affairs/environment/nantawarrina-ipa-and-rangers,-30.58194,138.97917,15471090.4352824,-3578574.28405745
48,60,Nyangumarta Rangers,Yamatji Marlpa Aboriginal Corporation,WA - Central and Southern region,WA,Added January 2017,21,21 Nyangumarta Rangers,https://www.niaa.gov.au/indigenous-affairs/environment/nyangumarta-warrarn-ipa-and-rangers,-19.76796389,120.6840667,13434488.851952,-2245563.22820706
49,61,Yugul Mangi Land and Sea Management Rangers,Northern Land Council,NT - Arnhem Land region,NT, ,27,27 Yugul Mangi Land and Sea Management Rangers,https://www.niaa.gov.au/indigenous-affairs/environment/yugul-mangi-rangers,-14.7317,134.7321,14998308.7654878,-1658298.79531742
50,30,Spinifex Rangers,Pila Nguru Aboriginal Corporation RNTBC,WA - Central and Southern region,WA,Added 2018,23,23 Spinifex Rangers,https://www.niaa.gov.au/indigenous-affairs/environment/anangu-tjutaku-ipa-and-spinifex-land-management-rangers,-29.340243,127.095745,14148233.6154398,-3419023.03104148
51,62,Mid West Aboriginal Rangers (3 groups),Northern Agricultural Catchments Council,WA - Central and Southern region,WA,Added 2018,24,24 Mid West Aboriginal Rangers (3 groups),https://www.niaa.gov.au/indigenous-affairs/environment/indigenous-rangers-working-country/midwest-aboriginal-rangers,-28.344,116.199,12935213.5106487,-3292413.95561209
52,63,Yirrganydji Indigenous Land and Sea Rangers,Dawul Wuru Aboriginal Corporation,Qld - Mainland northern region,QLD,Added 2016,31,31 Yirrganydji Indigenous Land and Sea Rangers,https://www.niaa.gov.au/indigenous-affairs/environment/yirrganydji-indigenous-land-and-sea-rangers,-16.707062,145.611,16209342.3738604,-1886751.81142967
53,64,Ngarrindjeri Rangers,Ngarrindjeri Regional Authority,SA,SA, ,4,4 Ngarrindjeri Rangers,https://www.niaa.gov.au/indigenous-affairs/environment/ngarrindjeri-rangers,-35.742924,139.267113,15503144.1034276,-4265305.52371817
54,65,Raukkan Rangers,Aboriginal Lands Trust of South Australia,SA,SA, ,5,5 Raukkan Rangers,https://www.niaa.gov.au/indigenous-affairs/environment/raukkan-rangers,-35.51719,139.10475,15485069.9368825,-4234389.21836026
55,66,Willandra Lakes Region Indigenous Rangers,NSW National Parks and Wildlife Service,NSW,NSW, ,9,9 Willandra Lakes Region Indigenous Rangers,https://www.niaa.gov.au/indigenous-affairs/environment/indigenous-rangers-working-country/willandra-lakes-world-heritage-area-rangers,-33.728595,143.153116,15935731.9785686,-3992416.9255965
56,67,Ngadju Rangers,Ngadju Conservation Aboriginal Corporation,WA - Central and Southern region,WA,Added 2018,25,25 Ngadju Rangers,https://www.niaa.gov.au/indigenous-affairs/environment/ngadju-ipa-and-rangers,-32.196,121.778,13556264.9498566,-3789066.26035522
57,68,Kiwirrkurra Rangers,Desert Support Services,WA - Central and Southern region,WA,Added 2018,26,26 Kiwirrkurra Rangers,https://www.niaa.gov.au/indigenous-affairs/environment/kiwirrkurra-ipa-and-rangers,-22.87334797,127.5011344,14193361.3569875,-2616709.38571131
58,69,Mangarrayi Rangers,Jawoyn Association Aboriginal Corporation,NT - Top End region,NT, ,34,34 Mangarrayi Rangers,https://www.niaa.gov.au/indigenous-affairs/environment/indigenous-rangers-working-country/mangarrayi-rangers,-15.16519268,133.42299571,14852579.9421815,-1708245.38839428
59,127,Tjakura Rangers,Central Land Council,NT - Central Australian region,NT,Added 2018,35,35 Tjakura Rangers,https://www.niaa.gov.au/indigenous-affairs/environment/katiti-petermann-ipa-kaltukatjara-rangers-and-mutijulu-tjakura-rangers,-25.3506953,131.0673596,14590351.7302759,-2918881.49893576
60,70,Australian Landscapes Trust Ranger Team,Aboriginal Lands Trust of South Australia,SA,SA, ,6,6 Australian Landscapes Trust Ranger Team,https://www.niaa.gov.au/indigenous-affairs/environment/yappala-ipa,-34.04243637,140.70519976,15663231.1898454,-4034501.61741369
61,71,Yalata Rangers,Yalata Anangu Aboriginal Corporation,SA,SA, ,7,7 Yalata Rangers,https://www.niaa.gov.au/indigenous-affairs/environment/yalata-ipa-and-rangers,-31.47211,131.84215,14676601.0030484,-3694214.59429221
62,72,Barkindji Maraura Elders Environment Rangers,Barkindji Maraura Elders Environment Team Ltd,NSW,NSW, ,10,10 Barkindji Maraura Elders Environment Rangers,https://www.niaa.gov.au/indigenous-affairs/environment/barkindji-maraura-rangers,-34.029153,142.029104,15810607.5350993,-4032717.2338494
63,73,Asyrikarrak Kirim Rangers,Deewin Kirim Aboriginal Corporation,NT - Top End region,NT,Added 2018,36,36 Asyrikarrak Kirim Rangers,https://www.niaa.gov.au/indigenous-affairs/environment/indigenous-rangers-working-country/asyrikarrak-kirim-rangers,-14.4105556,130.2213889,14496178.7027161,-1621361.04798865
64,74,Gamay Rangers,La Perouse Local Aboriginal Land Council,NSW,NSW,Added 2018,7,7 Gamay Rangers,https://www.niaa.gov.au/indigenous-affairs/environment/indigenous-rangers-working-country/gamay-botany-bay-rangers,-33.9821658,151.2303496,16834885.5099779,-4026407.5801423
65,75,Oak Valley Rangers,Oak Valley (Maralinga) Aboriginal Corporation,SA,SA,Added 2018,8,8 Oak Valley Rangers,https://www.niaa.gov.au/indigenous-affairs/environment/indigenous-rangers-working-country/oak-valley-rangers,-29.400767,130.740221,14553934.8279311,-3426754.25428035
66,76,Quandamooka Rangers,Quandamooka Yoolooburrabee Aboriginal Corporation,Qld - Mainland southern region,QLD,Added August 2016,32,32 Quandamooka Rangers,https://www.niaa.gov.au/indigenous-affairs/environment/quandamooka-rangers,-27.49883,153.4028,17076721.5822424,-3185933.39960733
67,77,Jahnala Yenbalehla Rangers,Minyumai Land Holding Aboriginal Corporation,NSW,NSW,Added 2018,3,3 Jahnala Yenbalehla Rangers,https://www.niaa.gov.au/indigenous-affairs/environment/indigenous-protected-areas/minyumai-ipa-and-jahnala-yenbalehla-rangers,-29.1850361,153.3495944,17070798.7619365,-3399218.13024379
68,78,Worimi Green Team Rangers,Worimi Local Aboriginal Land Council,NSW,NSW,Added 2017. Run by the Worimi Local Aboriginal Land Council,6,6 Worimi Green Team Rangers,https://www.niaa.gov.au/indigenous-affairs/environment/indigenous-rangers-working-country/worimi-green-team,-32.806665,151.86725,16905784.9381956,-3869670.00292337
69,128,milythina pakana Rangers (3 groups incl. 1a & 1b),Aboriginal Land Council of Tasmania,TAS,TAS,"Note: Three groups, Previously Tasmanian Aboriginal Centre Rangers - milaythina pakana",1,1 milythina pakana Rangers (3 groups incl. 1a & 1b),https://www.niaa.gov.au/tasmanian-aboriginal-trainee-rangers,-42.810464,147.327684,16400442.7626675,-5283166.88840246
70,79,Yawoorroong Miriuwung Gajerrong Rangers,Yawoorroong Miriuwang Gajerrong Yirrgeb Noong Dawang Aboriginal Corporation,WA - Kimberley region,WA, ,1,1 Yawoorroong Miriuwung Gajerrong Rangers,https://www.niaa.gov.au/indigenous-affairs/environment/miriuwung-gajerrong-rangers,-15.77273,128.7396,14331226.7169008,-1778418.51432879
71,80,Githabul Rangers,Border Rangers Contractors Pty Ltd,NSW,NSW, ,1,1 Githabul Rangers,https://www.niaa.gov.au/indigenous-affairs/environment/indigenous-rangers-working-country/githabul-rangers,-28.6255,153.0118,17033195.6613811,-3328066.37912362
72,81,Muru-warinyi Ankkul Rangers,Central Land Council,NT - Central Australian region,NT,Previously Maru-Warinyi Ankkul Rangers,3,3 Muru-warinyi Ankkul Rangers,https://www.niaa.gov.au/indigenous-affairs/environment/muru-warinyi-ankkul-rangers,-19.6478,134.1902,14937984.7334843,-2231354.34483934
73,82,Mandingalbay Yidinji Rangers,Djunbunji Limited,Qld - Mainland northern region,QLD,Previously Djunbunji,10,10 Mandingalbay Yidinji Rangers,https://www.niaa.gov.au/indigenous-affairs/environment/mandingalbay-yidinji-ipa-and-rangers,-16.90333,145.81223,16231743.1950556,-1909574.98054382
74,83,North Tanami Rangers,Central Land Council,NT - Central Australian region,NT,Previously Wulaign,8,8 North Tanami Rangers,https://www.niaa.gov.au/indigenous-affairs/environment/northern-tanami-ipa-and-north-tanami-rangers,-18.33584,130.63834,14542593.4868664,-2076895.73157011
75,84,Ngulingah Aboriginal Rangers,Ngulingah Local Aboriginal Land Council,NSW,NSW,Previously Nimbin Rocks Rangers,2,2 Ngulingah Aboriginal Rangers,https://www.niaa.gov.au/ngulingah-nimbin-rock-rangers,-28.6152,153.2012,17054279.5729385,-3326760.18873548
76,85,Li-Anthawirriyarra Sea Rangers,Mabunji Aboriginal Resource Association,NT - Arnhem Land region,NT, ,15,15 Li-Anthawirriyarra Sea Rangers,https://www.niaa.gov.au/indigenous-affairs/environment/yanyuwa-ipa-and-li-anthawirriuarra-sea-rangers,-16.0697,136.3086,15173803.9427652,-1812795.82697303
77,129,Warburton Women Rangers,Desert Support Services,WA - Central and Southern region,WA, ,16,16 Warburton Women Rangers,https://www.niaa.gov.au/indigenous-affairs/environment/western-desert-martu-ranger-programme,-26.131486,126.577936,14090591.3812221,-3015375.18248497
78,130,Warburton Men Rangers,Desert Support Services,WA - Central and Southern region,WA, ,17,17 Warburton Men Rangers,https://www.niaa.gov.au/indigenous-affairs/environment/western-desert-martu-ranger-programme,-25.97205806,126.60590582,14093704.9667805,-2995620.62590016
79,86,Gunggandji Rangers,Gunggandji Prescribed Body Corporate Aboriginal Corporation,Qld - Mainland northern region,QLD, ,29,29 Gunggandji Rangers,https://www.niaa.gov.au/indigenous-affairs/environment/gunggandji-land-and-sea-rangers,-16.924136,145.896378,16241110.5075591,-1911995.80954429
80,87,Goldfields Land Management Rangers,Goldfields Land and Sea Council,WA - Central and Southern region,WA,Added January 2017,22,22 Goldfields Land Management Rangers,https://www.niaa.gov.au/indigenous-affairs/environment/goldfields-land-management-rangers,-30.74639001,121.4663201,13521568.9020528,-3599856.67239562
81,88,Wagiman Rangers,Northern Land Council,NT - Top End region,NT, ,11,11 Wagiman Rangers,https://www.niaa.gov.au/indigenous-affairs/environment/wagiman-guwardagun-rangers,-13.8227,131.8344,14675738.2770545,-1553883.19344846
82,89,Warnbi Rangers,Warnbi Aboriginal Corporation,NT - Top End region,NT, ,18,18 Warnbi Rangers,https://www.niaa.gov.au/indigenous-affairs/environment/warnbi-rangers,-12.66180186,132.8137449,14784758.4526165,-1421120.00798842
83,90,Werenbun Rangers,Werenbun Aboriginal Corporation,NT - Top End region,NT, ,19,19 Werenbun Rangers,https://www.niaa.gov.au/indigenous-affairs/environment/werenbun-rangers,-13.138962,132.2644,14723605.65804,-1475612.81590092
84,91,Crocodile Islands Rangers,Milingimbi and Outstations Progress Resource Aboriginal Corporation,NT - Arnhem Land region,NT, ,20,20 Crocodile Islands Rangers,https://www.niaa.gov.au/indigenous-affairs/environment/crocodile-islands-rangers,-11.9,134.91667,15018855.0039375,-1334329.86971592
85,92,Yirralka Rangers,Laynhapuy Homelands Aboriginal Corporation,NT - Arnhem Land region,NT,Moved to Laynhapuy IPA - August 2020,21,21 Yirralka Rangers,https://www.niaa.gov.au/laynhapuy-ipa-and-yirralka-rangers,-13.2004,136.2261,15164620.084733,-1482636.79666888
86,93,Warddeken Rangers,Warddeken Land Management Limited,NT - Arnhem Land region,NT,Previously Manwurrk,24,24 Warddeken Rangers,https://www.niaa.gov.au/indigenous-affairs/environment/warddeken-ipa-and-rangers,-12.75,133.83333,14898258.1467547,-1431184.6449525
87,94,Garngi Land and Sea Management Rangers,Northern Land Council,NT - Arnhem Land region,NT, ,25,25 Garngi Land and Sea Management Rangers,https://www.niaa.gov.au/indigenous-affairs/environment/indigenous-rangers-working-country/garngi-rangers,-11.1507,132.5786,14758582.2420951,-1249201.02746803
88,95,Gumurr Marthakal Rangers,Marthakal Homelands and Resource Centre Aboriginal Corporation and Northern Land Council,NT - Arnhem Land region,NT, ,26,26 Gumurr Marthakal Rangers,https://www.niaa.gov.au/indigenous-affairs/environment/marthakal-ipa-and-gumurr-marthakal-rangers,-12.0235,135.5664,15091182.6166617,-1348382.97630585
89,96,Arafura Swamp Ranger Groups,Arafura Swamp Rangers Aboriginal Corporation,NT - Arnhem Land region,NT,Note: Three groups,28,28 Arafura Swamp Ranger Groups,https://www.niaa.gov.au/indigenous-affairs/environment/arafura-swamp-rangers,-12.575,135.0357,15032105.362886,-1411218.10402994
90,97,Mardbalk Land and Sea Management Rangers,Northern Land Council,NT - Arnhem Land region,NT, ,29,29 Mardbalk Land and Sea Management Rangers,https://www.niaa.gov.au/indigenous-affairs/environment/indigenous-rangers-working-country/mardbalk-marine-rangers,-11.65001389,133.386125,14848475.5139067,-1305903.32519682
91,98,Mimal Rangers,Mimal Land Management Aboriginal Corporation,NT - Arnhem Land region,NT, ,30,30 Mimal Rangers,https://www.niaa.gov.au/indigenous-affairs/environment/mimal-rangers,-13.66529167,134.3333472,14953919.8068838,-1535844.05698076
92,1,Numbulwar Numburindi Land and Sea Management Rangers,Northern Land Council,NT - Arnhem Land region,NT, ,31,31 Numbulwar Numburindi Land and Sea Management Rangers,https://www.niaa.gov.au/indigenous-affairs/environment/numbulwar-numburindi-amalahgayag-injung-rangers,-14.2791,135.7406,15110574.4720168,-1606256.54865865
93,2,Njanjma Rangers,Njanjma Aboriginal Corporation,NT - Arnhem Land region,NT, ,33,33 Njanjma Rangers,https://www.niaa.gov.au/indigenous-affairs/environment/njanjma-rangers,-12.388797,132.971821,14802355.4035342,-1389988.29016469
94,3,Anindilyakwa Rangers,Anindilyakwa Land Council,NT - Arnhem Land region,NT, ,17,17 Anindilyakwa Rangers,https://www.niaa.gov.au/indigenous-affairs/environment/anindilyakwa-ipa-and-rangers,-13.8506,136.4191,15186104.7465173,-1557081.82678179
95,4,Dhimurru Rangers,Dhimurru Aboriginal Corporation,NT - Arnhem Land region,NT, ,22,22 Dhimurru Rangers,https://www.niaa.gov.au/dhimurru-ipa-and-rangers,-12.187,136.7763,15225868.0685708,-1366997.63486158
96,5,Bawinanga Rangers,Bawinanga Aboriginal Corporation,NT - Arnhem Land region,NT, ,23,23 Bawinanga Rangers,https://www.niaa.gov.au/indigenous-affairs/environment/djelk-ipa-and-bawinanga-rangers,-12.05084722,134.223625,14941705.58746,-1351495.69582497
97,6,Jawoyn Rangers,Jawoyn Association Aboriginal Corporation,NT - Top End region,NT, ,32,32 Jawoyn Rangers,https://www.niaa.gov.au/jawoyn-rangers,-14.46676,132.266768,14723869.2626369,-1627821.75392468
98,128,milythina pakana Rangers (3 groups incl. 1a & 1b),Aboriginal Land Council of Tasmania,TAS,TAS,"Note: Three groups, Previously Tasmanian Aboriginal Centre Rangers - milaythina pakana",1,1 milythina pakana Rangers (3 groups incl. 1a & 1b),https://www.niaa.gov.au/tasmanian-aboriginal-trainee-rangers,-42.810464,147.327684,16443932.6160524,-4911417.07300901
99,7,truwana Rangers,Aboriginal Land Council of Tasmania,TAS,TAS,Added 2016,3,3 truwana Rangers,https://www.niaa.gov.au/indigenous-affairs/environment/truwana-rangers,-40.402,147.991,16474282.7619595,-4924532.94578149
100,100,lamalgal Rangers,Torres Strait Regional Authority,Qld - Torres Strait region,QLD, ,11,11 lamalgal Rangers,https://www.niaa.gov.au/indigenous-affairs/environment/indigenous-rangers-working-country/torres-strait-islands-rangers,-9.90139,142.77499,15893639.1848468,-1107745.10413746
101,101,Erubam Rangers,Torres Strait Regional Authority,Qld - Torres Strait region,QLD, ,12,12 Erubam Rangers,https://www.niaa.gov.au/indigenous-affairs/environment/indigenous-rangers-working-country/torres-strait-islands-rangers,-9.59694,143.76334,16003661.8035115,-1073357.2313503
102,102,Malu Kiai Rangers,Torres Strait Regional Authority,Qld - Torres Strait region,QLD, ,13,13 Malu Kiai Rangers,https://www.niaa.gov.au/indigenous-affairs/environment/indigenous-rangers-working-country/torres-strait-islands-rangers,-9.26028,142.21361,15831146.6490734,-1035367.12683783
103,103,Mura Badhugal Rangers,Torres Strait Regional Authority,Qld - Torres Strait region,QLD,Previously Mura Badhugau Rangers (an prior to that Badagal),14,14 Mura Badhugal Rangers,https://www.niaa.gov.au/indigenous-affairs/environment/indigenous-rangers-working-country/torres-strait-islands-rangers,-10.11556,142.14471,15823476.7361538,-1131954.83657506
104,104,Mabuygiw Rangers,Torres Strait Regional Authority,Qld - Torres Strait region,QLD, ,15,15 Mabuygiw Rangers,https://www.niaa.gov.au/indigenous-affairs/environment/indigenous-rangers-working-country/torres-strait-islands-rangers,-9.95351,142.19223,15828766.6383283,-1113635.27055561
105,8,Warraberalgal Rangers,Torres Strait Regional Authority,Qld - Torres Strait region,QLD,Previously Warraber Rangers,16,16 Warraberalgal Rangers,https://www.niaa.gov.au/indigenous-affairs/environment/warraberalgal-and-porumalgal-ipa,-10.206629,142.82777,15899514.6275149,-1142254.13036746
106,105,Mura Buway Rangers,Torres Strait Regional Authority,Qld - Torres Strait region,QLD,Previously Wugagal Rangers - Saibai,17,17 Mura Buway Rangers,https://www.niaa.gov.au/indigenous-affairs/environment/indigenous-rangers-working-country/torres-strait-islands-rangers,-9.389614,142.673982,15882395.0256742,-1049957.33083906
107,106,Masigalgal Rangers,Torres Strait Regional Authority,Qld - Torres Strait region,QLD,Previously Masig,18,18 Masigalgal Rangers,https://www.niaa.gov.au/indigenous-affairs/environment/indigenous-rangers-working-country/torres-strait-islands-rangers,-9.74462,143.43442,15967046.5966712,-1090033.88610749
108,107,Porumalgal Rangers,Torres Strait Regional Authority,Qld - Torres Strait region,QLD,"Previously Poruma, then Porumalgal Rangers",19,19 Porumalgal Rangers,https://www.niaa.gov.au/indigenous-affairs/environment/warraberalgal-and-porumalgal-ipa,-10.05018,143.06416,15925829.441999,-1124562.59886724
109,108,Mua Lagalgau Rangers - Kubin,Torres Strait Regional Authority,Qld - Torres Strait region,QLD,Previously Mualagal,20,20 Mua Lagalgau Rangers - Kubin,https://www.niaa.gov.au/indigenous-affairs/environment/indigenous-rangers-working-country/torres-strait-islands-rangers,-10.23323059,142.219,15831746.6611675,-1145263.14705357
110,109,Mua Lagalgau Rangers - St Pauls,Torres Strait Regional Authority,Qld - Torres Strait region,QLD,Added 2016,21,21 Mua Lagalgau Rangers - St Pauls,https://www.niaa.gov.au/indigenous-affairs/environment/indigenous-rangers-working-country/torres-strait-islands-rangers,-10.173537,142.267,15837089.9966589,-1138511.30735761
111,110,Ugaram Rangers,Torres Strait Regional Authority,Qld - Torres Strait region,QLD,Previously Ugar,22,22 Ugaram Rangers,https://www.niaa.gov.au/indigenous-affairs/environment/indigenous-rangers-working-country/torres-strait-islands-rangers,-9.5074,143.5475,15979634.6046391,-1063249.53907414
112,111,Meriam Gesep Rangers,Torres Strait Regional Authority,Qld - Torres Strait region,QLD,Previously Meriam Gesep A Gur Keparem Le Rangers,23,23 Meriam Gesep Rangers,https://www.niaa.gov.au/indigenous-affairs/environment/indigenous-rangers-working-country/torres-strait-islands-rangers,-9.91518,144.05164,16035755.2127455,-1109303.44341135
113,112,Simakal Rangers,Torres Strait Regional Authority,Qld - Torres Strait region,QLD,Previously Dauan,24,24 Simakal Rangers,https://www.niaa.gov.au/indigenous-affairs/environment/indigenous-rangers-working-country/torres-strait-islands-rangers,-9.423205,142.533023,15866703.541565,-1053747.62863928
114,9,Apudthama Land and Sea Rangers,Northern Peninsula Area Regional Council,Qld - Mainland northern region,QLD,Note: Two groups,26,26 Apudthama Land and Sea Rangers,https://www.niaa.gov.au/indigenous-affairs/environment/apudthama-northern-peninsula-area-rangers,-10.89313131,142.3861832,15850357.4097989,-1219989.75870093
115,10,Budj Bim Rangers,Gunditj Mirring Traditional Owners Aboriginal Corporation and Winda Mara Aboriginal Corporation,VIC,VIC, ,1,1 Budj Bim Rangers,https://www.niaa.gov.au/indigenous-affairs/environment/kurtonitj-ipa-and-budj-bim-rangers,-38.13430556,141.6254167,15765669.2704649,-4598416.09607655
116,11,Arabana Rangers,Arabana Aboriginal Corporation RNTBC,SA,SA,Added 2019,9,9 Arabana Rangers,https://www.niaa.gov.au/indigenous-affairs/environment/indigenous-rangers-working-country/arabana-rangers,-29.57909964,137.46435095,15302461.549997,-3449560.95150195
117,12,Bhewerre Rangers - Jervis Bay Territory,Wreck Bay Aboriginal Community Council,ACT,ACT,Added 14 August 2020,1,1 Bhewerre Rangers - Jervis Bay Territory,https://www.niaa.gov.au/indigenous-affairs/environment/wreck-bay-caring-country-rangers,-35.16640034,150.68984802,16774717.149043,-4186517.34143323
118,13,Tjaltjraak Rangers,Esperance Tjaltjraak Native Title Aboriginal Corporation,WA - Central and Southern region,WA,Added 14 August 2020,28,28 Tjaltjraak Rangers,https://www.niaa.gov.au/indigenous-affairs/environment/esperance-tjaltjraak-cultural-rangers,-33.84308497,121.89516173,13569307.3336837,-4007751.58179277
119,14,Yawuru Rangers,Nyamba Buru Yawuru Ltd,WA - Kimberley region,WA,Added 14 August 2020,27,27 Yawuru Rangers,https://www.niaa.gov.au/indigenous-affairs/environment/yawuru-ipa-and-rangers,-17.96065779,122.21472121,13604880.5320292,-2032944.12222812
120,31,Barkandji River Rangers,Barkandji Native Title Group Aboriginal Corporation,NSW,NSW,Added 14 August 2020,8,8 Barkandji River Rangers,https://www.niaa.gov.au/indigenous-affairs/environment/barkandji-rangers,-32.39305862,142.416226,15853701.7589897,-3815016.98878496
121,32,Wellesley Islands Rangers,Wellesley Islands Land and Sea Social Economic Development PTY LTD,Qld - Mainland northern region,QLD,Added 22 March 2021,33,33 Wellesley Islands Rangers,https://www.niaa.gov.au/indigenous-affairs/environment/thuwathu-bujimulla-ipa-and-wellesley-islands-rangers,-16.66205366,139.17849112,15493278.7610958,-1881521.30051438
122,117,Coorong and Murray Lower Lakes Area Rangers,Aboriginal Lands Trust of South Australia,SA,SA,"Note: Two groups, Added 22 March 2021",10,10 Coorong and Murray Lower Lakes Area Rangers,https://www.niaa.gov.au/indigenous-affairs/environment/raukkan-rangers,-35.11984629,139.2735556,15503861.2900949,-4180179.72645008
123,33,River Murray and Mallee Aboriginal Corporation Ranger Team,Murraylands and Riverland Landscape Board,SA,SA, ,11,11 River Murray and Mallee Aboriginal Corporation Ranger Team,https://www.niaa.gov.au/indigenous-affairs/environment/riverland-rangers,-34.17207402,140.74648768,15667827.3388856,-4051930.83181857
124,118,Northern Gomeroi River Rangers,National Indigenous Australians Agency,NSW,NSW,Murray Darling Ranger Program (separate program from IRP),5,5 Northern Gomeroi River Rangers,https://www.niaa.gov.au/sites/default/files/murray-darling-basin-indigenous-river-rangers-program.docx,-28.60081181,150.36249861,16738276.7799279,-3324935.77125508
125,119,Ngarrangarra-li Walaaybaa Walgett River Rangers,National Indigenous Australians Agency,NSW,NSW,Murray Darling Ranger Program (separate program from IRP),4,4 Ngarrangarra-li Walaaybaa Walgett River Rangers,https://www.niaa.gov.au/sites/default/files/murray-darling-basin-indigenous-river-rangers-program.docx,-30.01900007,148.14100006,16490980.6921526,-3505992.35917736
126,119,Ngarrangarra-li Walaaybaa Walgett River Rangers,National Indigenous Australians Agency,NSW,NSW,Murray Darling Ranger Program (separate program from IRP),4,4 Ngarrangarra-li Walaaybaa Walgett River Rangers,https://www.niaa.gov.au/sites/default/files/murray-darling-basin-indigenous-river-rangers-program.docx,-30.01900007,148.14100006,16449808.2171979,-3468874.61103331
127,121,Lindsay Mulcra and Wallpolla Islands River Rangers,National Indigenous Australians Agency,NSW,NSW,Murray Darling Ranger Program (separate program from IRP),1,1 Lindsay Mulcra and Wallpolla Islands River Rangers,https://www.niaa.gov.au/sites/default/files/murray-darling-basin-indigenous-river-rangers-program.docx,-34.10299992,141.74899992,15779426.4913289,-4042640.79791675
128,122,Gayini River Rangers,National Indigenous Australians Agency,NSW,NSW,Murray Darling Ranger Program (separate program from IRP),2,2 Gayini River Rangers,https://www.niaa.gov.au/sites/default/files/murray-darling-basin-indigenous-river-rangers-program.docx,-34.49931613,143.83996456,16012191.609954,-4096046.66637923
129,123,Yarkuwa Indigenous River Rangers,National Indigenous Australians Agency,NSW,NSW,Murray Darling Ranger Program (separate program from IRP),3,3 Yarkuwa Indigenous River Rangers,https://www.niaa.gov.au/sites/default/files/murray-darling-basin-indigenous-river-rangers-program.docx,-35.28434571,144.24276231,16057030.8507344,-4202590.04505077
130,113,"Kurtijar, Gkuthaarn, and Kukatj (Normanton) Rangers",Carpentaria Land Council Aboriginal Corporation,Qld - Mainland northern region,QLD,Added 2016,5,"5 Kurtijar, Gkuthaarn, and Kukatj (Normanton) Rangers",https://www.niaa.gov.au/indigenous-affairs/environment/normanton-rangers,-17.6667,141.067,15703507.4939288,-1998571.3870623
